NORAD_CAT_ID,OBJECT_NAME,OBJECT_TYPE,EPOCH,MEAN_MOTION,ECCENTRICITY,INCLINATION,RA_OF_ASC_NODE,ARG_OF_PERICENTER,MEAN_ANOMALY,BSTAR,MEAN_MOTION_DOT,MEAN_MOTION_DDOT,TLE_LINE0,TLE_LINE1,TLE_LINE2,SEMIMAJOR_AXIS,PERIOD,APOGEE,PERIGEE,DECAYED
53415.0,STARLINK-4479,PAYLOAD,2022-08-15 18:00:00,15.85635192,0.0019671,53.2175,220.7561,52.8144,13.0907,-0.0051847,-0.01152552,0.0,0 STARLINK-4479,1 53415U 22097AD  22227.75001157 -.01152552  00000-0 -51847-2 0  9999,2 53415  53.2175 220.7561 0019671  52.8144  13.0907 15.85635192  1303,6692.674,90.815,327.704,301.374,0.0
53415.0,STARLINK-4479,PAYLOAD,2022-08-16 06:00:02,15.84341018,0.0015228,53.2175,218.2396,50.2763,350.344,-0.005624,-0.01162087,0.0,0 STARLINK-4479,1 53415U 22097AD  22228.25002315 -.01162087  00000-0 -56240-2 0  9998,2 53415  53.2175 218.2396 0015228  50.2763 350.3440 15.84341018  1370,6696.318,90.89,328.38,307.986,0.0
53415.0,STARLINK-4479,PAYLOAD,2022-08-16 14:00:01,15.83477657,0.0011672,53.2173,216.5632,49.0182,93.3333,-0.0059255,-0.01188847,0.0,0 STARLINK-4479,1 53415U 22097AD  22228.58334491 -.01188847  00000-0 -59255-2 0  9998,2 53415  53.2173 216.5632 0011672  49.0182  93.3333 15.83477657  1308,6698.752,90.939,328.436,312.798,0.0
53415.0,STARLINK-4479,PAYLOAD,2022-08-16 22:00:00,15.82633381,0.0009013,53.2173,214.888,47.8112,195.2879,-0.006414,-0.01227271,0.0,0 STARLINK-4479,1 53415U 22097AD  22228.91667824 -.01227271  00000-0 -64140-2 0  9998,2 53415  53.2173 214.8880 0009013  47.8112 195.2879 15.82633381  1482,6701.134,90.988,329.039,316.959,0.0
53415.0,STARLINK-4479,PAYLOAD,2022-08-17 14:00:01,15.80875269,0.0004221999999999,53.2173,211.5484,11.8409,69.6465,-0.0067439,-0.01187479,0.0,0 STARLINK-4479,1 53415U 22097AD  22229.58334491 -.01187479  00000-0 -67439-2 0  9992,2 53415  53.2173 211.5484 0004222  11.8409  69.6465 15.80875269  1300,6706.101,91.089,330.798,325.135,0.0
53415.0,STARLINK-4479,PAYLOAD,2022-08-18 08:00:01,15.78918948,0.0002991,53.2183,207.801,357.0513,32.6292,-0.007356,-0.01182974,0.0,0 STARLINK-4479,1 53415U 22097AD  22230.33334491 -.01182974  00000-0 -73560-2 0  9994,2 53415  53.2183 207.8010 0002991 357.0513  32.6292 15.78918948  1707,6711.639,91.202,335.51199999999994,331.497,0.0
53415.0,STARLINK-4479,PAYLOAD,2022-08-18 14:00:01,15.78278303,0.0003056,53.2173,206.5528,5.7272,5.5064,-0.0076709999999999,-0.01196486,0.0,0 STARLINK-4479,1 53415U 22097AD  22230.58334491 -.01196486  00000-0 -76710-2 0  9994,2 53415  53.2173 206.5528 0003056   5.7272   5.5064 15.78278303  1304,6713.456,91.239,337.372,333.269,0.0
53415.0,STARLINK-4479,PAYLOAD,2022-08-18 22:00:00,15.77408404,0.0003075,53.2175,204.8906,8.6627,97.0688,-0.0079472,-0.01192262,0.0,0 STARLINK-4479,1 53415U 22097AD  22230.91667824 -.01192262  00000-0 -79472-2 0  9996,2 53415  53.2175 204.8906 0003075   8.6627  97.0688 15.77408404  1308,6715.924,91.289,339.8540000000001,335.723,0.0
53415.0,STARLINK-4479,PAYLOAD,2022-08-19 14:00:01,15.75671391,8.04e-05,53.2174,201.5763,37.8552,253.7417,-0.0085764,-0.01189535,0.0,0 STARLINK-4479,1 53415U 22097AD  22231.58334491 -.01189535  00000-0 -85764-2 0  9991,2 53415  53.2174 201.5763 0000804  37.8552 253.7417 15.75671391  1306,6720.858,91.39,343.264,342.18300000000005,0.0
53415.0,STARLINK-4479,PAYLOAD,2022-08-19 16:00:00,15.7545763,0.0001205999999999,53.2178,201.1622,31.4176,13.1174,-0.0086977,-0.01194573,0.0,0 STARLINK-4479,1 53415U 22097AD  22231.66667824 -.01194573  00000-0 -86977-2 0  9994,2 53415  53.2178 201.1622 0001206  31.4176  13.1174 15.75457630  1912,6721.465999999999,91.402,344.142,342.521,0.0
53415.0,STARLINK-4479,PAYLOAD,2022-08-19 22:00:00,15.74806788,0.0001236,53.2177,199.9208,41.2056,341.7577,-0.0089589,-0.01195542,0.0,0 STARLINK-4479,1 53415U 22097AD  22231.91667824 -.01195542  00000-0 -89589-2 0  9991,2 53415  53.2177 199.9208 0001236  41.2056 341.7577 15.74806788  1305,6723.318,91.44,346.014,344.352,0.0
53415.0,STARLINK-4479,PAYLOAD,2022-08-20 08:00:01,15.7358049,0.0001234,53.218,197.8582,57.9586,167.7647,-0.0036034999999999,-0.00486079,0.0,0 STARLINK-4479,1 53415U 22097AD  22232.33334491 -.00486079  00000-0 -36035-2 0  9994,2 53415  53.2180 197.8582 0001234  57.9586 167.7647 15.73580490  2023,6726.811,91.511,349.506,347.846,0.0
53415.0,STARLINK-4479,PAYLOAD,2022-08-20 14:00:01,15.73205444,0.0001088999999999,53.2174,196.6189,60.0724,142.5907,-3.1502e-05,-5.039e-05,0.0,0 STARLINK-4479,1 53415U 22097AD  22232.58334491 -.00005039  00000-0 -31502-4 0  9990,2 53415  53.2174 196.6189 0001089  60.0724 142.5907 15.73205444  1306,6727.88,91.533,350.477,349.01199999999994,0.0
53415.0,STARLINK-4479,PAYLOAD,2022-08-20 22:00:00,15.73203954,0.0001274,53.2175,194.9685,56.6507,234.9463,1.3485e-05,1.273e-05,0.0,0 STARLINK-4479,1 53415U 22097AD  22232.91667824  .00001273  00000-0  13485-4 0  9990,2 53415  53.2175 194.9685 0001274  56.6507 234.9463 15.73203954  1302,6727.884,91.533,350.606,348.892,0.0
53415.0,STARLINK-4479,PAYLOAD,2022-08-21 06:00:00,15.73233389,0.0001210999999999,53.22,193.3242,54.9982,325.5816,-0.00079655,-0.00111102,0.0,0 STARLINK-4479,1 53415U 22097AD  22233.25001157 -.00111102  00000-0 -79655-3 0  9994,2 53415  53.2200 193.3242 0001211  54.9982 325.5816 15.73233389  2161,6727.8,91.531,350.48,348.85,0.0
53415.0,STARLINK-4479,PAYLOAD,2022-08-21 14:00:01,15.73166017,0.0001018,53.2201,191.6734,56.7578,52.7676,-4.2661e-05,-6.593e-05,0.0,0 STARLINK-4479,1 53415U 22097AD  22233.58334491 -.00006593  00000-0 -42661-4 0  9995,2 53415  53.2201 191.6734 0001018  56.7578  52.7676 15.73166017  1306,6727.9919999999975,91.535,350.542,349.172,0.0
53415.0,STARLINK-4479,PAYLOAD,2022-08-21 22:00:00,15.73165999,0.0001051,53.2204,190.0236,65.5712,132.8168,0.0002855,0.00039578,0.0,0 STARLINK-4479,1 53415U 22097AD  22233.91667824  .00039578  00000-0  28550-3 0  9998,2 53415  53.2204 190.0236 0001051  65.5712 132.8168 15.73165999  1308,6727.9919999999975,91.535,350.564,349.15,0.0
53415.0,STARLINK-4479,PAYLOAD,2022-08-22 06:00:00,15.7318008,0.0001225,53.2202,188.3762,53.8995,233.4023,0.00046129,0.00064562,0.0,0 STARLINK-4479,1 53415U 22097AD  22234.25001157  .00064562  00000-0  46129-3 0  9990,2 53415  53.2202 188.3762 0001225  53.8995 233.4023 15.73180080  2325,6727.9519999999975,91.534,350.641,348.99300000000005,0.0
53415.0,STARLINK-4479,PAYLOAD,2022-08-22 12:00:00,15.73228943,0.0001123,53.2196,187.1383,56.1763,207.8061,6.0597000000000015e-06,2.32e-06,0.0,0 STARLINK-4479,1 53415U 22097AD  22234.50001157  .00000232  00000-0  60597-5 0  9999,2 53415  53.2196 187.1383 0001123  56.1763 207.8061 15.73228943  1304,6727.813,91.531,350.43300000000005,348.922,0.0
53415.0,STARLINK-4479,PAYLOAD,2022-08-22 22:00:00,15.73273412,0.0001176,53.2201,185.0757,70.7542,34.4206,-0.00057187,-0.00080365,0.0,0 STARLINK-4479,1 53415U 22097AD  22234.91667824 -.00080365  00000-0 -57187-3 0  9999,2 53415  53.2201 185.0757 0001176  70.7542  34.4206 15.73273412  2439,6727.686,91.529,350.342,348.76,0.0
53415.0,STARLINK-4479,PAYLOAD,2022-08-23 14:00:01,15.73231884,0.0001145,53.2206,181.7773,65.3436,217.7414,-0.00062924,-0.00088128,0.0,0 STARLINK-4479,1 53415U 22097AD  22235.58334491 -.00088128  00000-0 -62924-3 0  9994,2 53415  53.2206 181.7773 0001145  65.3436 217.7414 15.73231884  1302,6727.804,91.531,350.44,348.899,0.0
53415.0,STARLINK-4479,PAYLOAD,2022-08-23 20:00:01,15.73165003,0.0001062,53.2208,180.5395,68.6825,191.1076,0.00041411,0.0005781,0.0,0 STARLINK-4479,1 53415U 22097AD  22235.83334491  .00057810  00000-0  41411-3 0  9992,2 53415  53.2208 180.5395 0001062  68.6825 191.1076 15.73165003  2575,6727.995,91.535,350.574,349.145,0.0
53415.0,STARLINK-4479,PAYLOAD,2022-08-23 22:00:01,15.73192765,0.0001100999999999,53.2209,180.1276,67.1345,304.9387,0.00011153,0.00015056,0.0,0 STARLINK-4479,1 53415U 22097AD  22235.91668981  .00015056  00000-0  11153-3 0  9991,2 53415  53.2209 180.1276 0001101  67.1345 304.9387 15.73192765  1309,6727.916,91.534,350.522,349.04,0.0
53415.0,STARLINK-4479,PAYLOAD,2022-08-24 06:00:00,15.73174261,0.000124,53.2205,178.4799,58.4301,42.6028,0.00048496,0.00067917,0.0,0 STARLINK-4479,1 53415U 22097AD  22236.25001157  .00067917  00000-0  48496-3 0  9998,2 53415  53.2205 178.4799 0001240  58.4301  42.6028 15.73174261  2641,6727.969,91.535,350.668,348.999,0.0
53415.0,STARLINK-4479,PAYLOAD,2022-08-24 14:00:01,15.73224477,0.0001125999999999,53.2206,176.829,65.7773,124.1843,4.6622e-05,5.935e-05,0.0,0 STARLINK-4479,1 53415U 22097AD  22236.58334491  .00005935  00000-0  46622-4 0  9996,2 53415  53.2206 176.8290 0001126  65.7773 124.1843 15.73224477  1305,6727.825,91.532,350.4480000000001,348.93300000000005,0.0
53415.0,STARLINK-4479,PAYLOAD,2022-08-24 22:00:00,15.732491199999998,0.0001257,53.2202,175.1798,73.5116,205.408,-0.00056789,-0.00079734,0.0,0 STARLINK-4479,1 53415U 22097AD  22236.91667824 -.00079734  00000-0 -56789-3 0  9996,2 53415  53.2202 175.1798 0001257  73.5116 205.4080 15.73249120  2746,6727.755,91.53,350.466,348.774,0.0
53415.0,STARLINK-4479,PAYLOAD,2022-08-25 06:00:02,15.72966768,0.0001216,53.2181,173.5277,79.5311,288.4162,0.0024138,0.00349117,0.0,0 STARLINK-4479,1 53415U 22097AD  22237.25002315  .00349117  00000-0  24138-2 0  9997,2 53415  53.2181 173.5277 0001216  79.5311 288.4162 15.72966768  2794,6728.56,91.547,351.24300000000005,349.607,0.0
53415.0,STARLINK-4479,PAYLOAD,2022-08-25 14:00:01,15.73216468,0.000124,53.2195,171.8811,71.1926,25.596,0.00011577,0.00015669,0.0,0 STARLINK-4479,1 53415U 22097AD  22237.58334491  .00015669  00000-0  11577-3 0  9992,2 53415  53.2195 171.8811 0001240  71.1926  25.5960 15.73216468  1309,6727.848000000001,91.532,350.547,348.879,0.0
53415.0,STARLINK-4479,PAYLOAD,2022-08-25 22:00:00,15.7324175,0.0001223,53.2198,170.2318,71.807,113.939,-0.00045506,-0.00064113,0.0,0 STARLINK-4479,1 53415U 22097AD  22237.91667824 -.00064113  00000-0 -45506-3 0  9997,2 53415  53.2198 170.2318 0001223  71.8070 113.9390 15.73241750  2903,6727.776,91.531,350.464,348.8180000000001,0.0
